{
  "links" : {
    "next" : "https://api.nasa.gov/neo/rest/v1/feed?start_date=2007-01-16&end_date=2007-01-16&detailed=true&api_key=t0TVs3DtDT2H8Oy2Zy8m2eVrNsAVKAexjcZXUckd",
    "prev" : "https://api.nasa.gov/neo/rest/v1/feed?start_date=2007-01-14&end_date=2007-01-14&detailed=true&api_key=t0TVs3DtDT2H8Oy2Zy8m2eVrNsAVKAexjcZXUckd",
    "self" : "https://api.nasa.gov/neo/rest/v1/feed?start_date=2007-01-15&end_date=2007-01-15&detailed=true&api_key=t0TVs3DtDT2H8Oy2Zy8m2eVrNsAVKAexjcZXUckd"
  },
  "element_count" : 4,
  "near_earth_objects" : {
    "2007-01-15" : [ {
      "links" : {
        "self" : "https://api.nasa.gov/neo/rest/v1/neo/2416002?api_key=t0TVs3DtDT2H8Oy2Zy8m2eVrNsAVKAexjcZXUckd"
      },
      "neo_reference_id" : "2416002",
      "name" : "416002 (2002 BN)",
      "nasa_jpl_url" : "http://ssd.jpl.nasa.gov/sbdb.cgi?sstr=2416002",
      "absolute_magnitude_h" : 20.5,
      "estimated_diameter" : {
        "kilometers" : {
          "estimated_diameter_min" : 0.2111324448,
          "estimated_diameter_max" : 0.4721064988
        },
        "meters" : {
          "estimated_diameter_min" : 211.1324447897,
          "estimated_diameter_max" : 472.1064988055
        },
        "miles" : {
          "estimated_diameter_min" : 0.1311915784,
          "estimated_diameter_max" : 0.2933532873
        },
        "feet" : {
          "estimated_diameter_min" : 692.6917701639,
          "estimated_diameter_max" : 1548.9058855411
        }
      },
      "is_potentially_hazardous_asteroid" : false,
      "close_approach_data" : [ {
        "close_approach_date" : "2007-01-15",
        "epoch_date_close_approach" : 1168848000000,
        "relative_velocity" : {
          "kilometers_per_second" : "29.5503387178",
          "kilometers_per_hour" : "106381.2193841765",
          "miles_per_hour" : "66101.1526779068"
        },
        "miss_distance" : {
          "astronomical" : "0.3421802395",
          "lunar" : "133.1081237793",
          "kilometers" : "51189436",
          "miles" : "31807642"
        },
        "orbiting_body" : "Earth"
      } ],
      "orbital_data" : {
        "orbit_id" : "31",
        "orbit_determination_date" : "2017-04-06 09:21:23",
        "orbit_uncertainty" : "0",
        "minimum_orbit_intersection" : ".090748",
        "jupiter_tisserand_invariant" : "6.554",
        "epoch_osculation" : "2458000.5",
        "eccentricity" : ".5464253273647408",
        "semi_major_axis" : ".8750159597970893",
        "inclination" : "27.75263660449618",
        "ascending_node_longitude" : "115.7699321917712",
        "orbital_period" : "298.966404488153",
        "perihelion_distance" : ".3968850775155919",
        "perihelion_argument" : "147.2420224399091",
        "aphelion_distance" : "1.353146842078587",
        "perihelion_time" : "2458056.263988608750",
        "mean_anomaly" : "292.851866973082",
        "mean_motion" : "1.204148675555502",
        "equinox" : "J2000"
      }
    }, {
      "links" : {
        "self" : "https://api.nasa.gov/neo/rest/v1/neo/3125002?api_key=t0TVs3DtDT2H8Oy2Zy8m2eVrNsAVKAexjcZXUckd"
      },
      "neo_reference_id" : "3125002",
      "name" : "(2002 JD9)",
      "nasa_jpl_url" : "http://ssd.jpl.nasa.gov/sbdb.cgi?sstr=3125002",
      "absolute_magnitude_h" : 23.2,
      "estimated_diameter" : {
        "kilometers" : {
          "estimated_diameter_min" : 0.0608912622,
          "estimated_diameter_max" : 0.1361570015
        },
        "meters" : {
          "estimated_diameter_min" : 60.8912622106,
          "estimated_diameter_max" : 136.1570015386
        },
        "miles" : {
          "estimated_diameter_min" : 0.0378360645,
          "estimated_diameter_max" : 0.0846040122
        },
        "feet" : {
          "estimated_diameter_min" : 199.7744887109,
          "estimated_diameter_max" : 446.7093369279
        }
      },
      "is_potentially_hazardous_asteroid" : false,
      "close_approach_data" : [ {
        "close_approach_date" : "2007-01-15",
        "epoch_date_close_approach" : 1168848000000,
        "relative_velocity" : {
          "kilometers_per_second" : "29.0126533123",
          "kilometers_per_hour" : "104445.5519242638",
          "miles_per_hour" : "64898.4041942738"
        },
        "miss_distance" : {
          "astronomical" : "0.4946976168",
          "lunar" : "192.4373779297",
          "kilometers" : "74005712",
          "miles" : "45985016"
        },
        "orbiting_body" : "Earth"
      } ],
      "orbital_data" : {
        "orbit_id" : "20",
        "orbit_determination_date" : "2017-04-06 09:15:11",
        "orbit_uncertainty" : "0",
        "minimum_orbit_intersection" : ".0538023",
        "jupiter_tisserand_invariant" : "5.732",
        "epoch_osculation" : "2458000.5",
        "eccentricity" : ".4403510374115305",
        "semi_major_axis" : "1.055715427022537",
        "inclination" : "6.614201540871415",
        "ascending_node_longitude" : "208.257896209835",
        "orbital_period" : "396.2038840657916",
        "perihelion_distance" : ".5908300435218057",
        "perihelion_argument" : "138.9910308292791",
        "aphelion_distance" : "1.520600810523268",
        "perihelion_time" : "2458024.782151297971",
        "mean_anomaly" : "337.9366764970483",
        "mean_motion" : ".9086230965373885",
        "equinox" : "J2000"
      }
    }, {
      "links" : {
        "self" : "https://api.nasa.gov/neo/rest/v1/neo/3367027?api_key=t0TVs3DtDT2H8Oy2Zy8m2eVrNsAVKAexjcZXUckd"
      },
      "neo_reference_id" : "3367027",
      "name" : "(2007 BJ29)",
      "nasa_jpl_url" : "http://ssd.jpl.nasa.gov/sbdb.cgi?sstr=3367027",
      "absolute_magnitude_h" : 18.8,
      "estimated_diameter" : {
        "kilometers" : {
          "estimated_diameter_min" : 0.4619074603,
          "estimated_diameter_max" : 1.0328564805
        },
        "meters" : {
          "estimated_diameter_min" : 461.9074602816,
          "estimated_diameter_max" : 1032.8564805039
        },
        "miles" : {
          "estimated_diameter_min" : 0.2870159005,
          "estimated_diameter_max" : 0.6417870641
        },
        "feet" : {
          "estimated_diameter_min" : 1515.4444719902,
          "estimated_diameter_max" : 3388.6368554964
        }
      },
      "is_potentially_hazardous_asteroid" : true,
      "close_approach_data" : [ {
        "close_approach_date" : "2007-01-15",
        "epoch_date_close_approach" : 1168848000000,
        "relative_velocity" : {
          "kilometers_per_second" : "30.8152810509",
          "kilometers_per_hour" : "110935.0117831579",
          "miles_per_hour" : "68930.7021827072"
        },
        "miss_distance" : {
          "astronomical" : "0.1641563087",
          "lunar" : "63.8568000793",
          "kilometers" : "24557434",
          "miles" : "15259282"
        },
        "orbiting_body" : "Earth"
      } ],
      "orbital_data" : {
        "orbit_id" : "29",
        "orbit_determination_date" : "2017-04-06 09:07:10",
        "orbit_uncertainty" : "0",
        "minimum_orbit_intersection" : ".0234425",
        "jupiter_tisserand_invariant" : "3.099",
        "epoch_osculation" : "2458000.5",
        "eccentricity" : ".8261275015881013",
        "semi_major_axis" : "2.183641931601529",
        "inclination" : "11.0761908830863",
        "ascending_node_longitude" : "242.1136370880905",
        "orbital_period" : "1178.611202882982",
        "perihelion_distance" : ".3796752782845421",
        "perihelion_argument" : "119.4647378399672",
        "aphelion_distance" : "3.987608584918515",
        "perihelion_time" : "2457612.314047544590",
        "mean_anomaly" : "118.5691621987937",
        "mean_motion" : ".3054442373527502",
        "equinox" : "J2000"
      }
    }, {
      "links" : {
        "self" : "https://api.nasa.gov/neo/rest/v1/neo/3704770?api_key=t0TVs3DtDT2H8Oy2Zy8m2eVrNsAVKAexjcZXUckd"
      },
      "neo_reference_id" : "3704770",
      "name" : "(2015 BH92)",
      "nasa_jpl_url" : "http://ssd.jpl.nasa.gov/sbdb.cgi?sstr=3704770",
      "absolute_magnitude_h" : 25.0,
      "estimated_diameter" : {
        "kilometers" : {
          "estimated_diameter_min" : 0.02658,
          "estimated_diameter_max" : 0.0594346868
        },
        "meters" : {
          "estimated_diameter_min" : 26.58,
          "estimated_diameter_max" : 59.4346868419
        },
        "miles" : {
          "estimated_diameter_min" : 0.0165160412,
          "estimated_diameter_max" : 0.0369309908
        },
        "feet" : {
          "estimated_diameter_min" : 87.2047272,
          "estimated_diameter_max" : 194.9956979785
        }
      },
      "is_potentially_hazardous_asteroid" : false,
      "close_approach_data" : [ {
        "close_approach_date" : "2007-01-15",
        "epoch_date_close_approach" : 1168848000000,
        "relative_velocity" : {
          "kilometers_per_second" : "13.677106754",
          "kilometers_per_hour" : "49237.5843145627",
          "miles_per_hour" : "30594.3200981237"
        },
        "miss_distance" : {
          "astronomical" : "0.4010596826",
          "lunar" : "156.01222229",
          "kilometers" : "59997676",
          "miles" : "37280828"
        },
        "orbiting_body" : "Earth"
      } ],
      "orbital_data" : {
        "orbit_id" : "19",
        "orbit_determination_date" : "2017-04-06 08:36:12",
        "orbit_uncertainty" : "5",
        "minimum_orbit_intersection" : ".0659277",
        "jupiter_tisserand_invariant" : "4.785",
        "epoch_osculation" : "2458000.5",
        "eccentricity" : ".2431453139730041",
        "semi_major_axis" : "1.373284177827633",
        "inclination" : "2.294801950632122",
        "ascending_node_longitude" : "250.6461783803455",
        "orbital_period" : "587.8128170417314",
        "perihelion_distance" : "1.039376565235574",
        "perihelion_argument" : "257.7730618279613",
        "aphelion_distance" : "1.707191790419692",
        "perihelion_time" : "2458244.949737910069",
        "mean_anomaly" : "210.2892364775074",
        "mean_motion" : ".6124398610628493",
        "equinox" : "J2000"
      }
    } ]
  }
}